NORAD_CAT_ID,OBJECT_NAME,OBJECT_TYPE,EPOCH,MEAN_MOTION,ECCENTRICITY,INCLINATION,RA_OF_ASC_NODE,ARG_OF_PERICENTER,MEAN_ANOMALY,BSTAR,MEAN_MOTION_DOT,MEAN_MOTION_DDOT,TLE_LINE0,TLE_LINE1,TLE_LINE2,SEMIMAJOR_AXIS,PERIOD,APOGEE,PERIGEE,DECAYED
52986.0,STARLINK-4260,PAYLOAD,2023-09-19 01:23:31,15.0884931,0.0001497,53.216,186.1939,88.3652,271.7511,0.000358,5.416e-05,0.0,0 STARLINK-4260,1 52986U 22076A   23262.05800758  .00005416  00000-0  35800-3 0  9990,2 52986  53.2160 186.1939 0001497  88.3652 271.7511 15.08849310 67049,6917.852,95.437,540.753,538.681,0.0
52986.0,STARLINK-4260,PAYLOAD,2023-09-19 18:52:46,15.08849077,0.0001605,53.2152,182.9222,89.2623,270.8553,0.00030143,4.514e-05,0.0,0 STARLINK-4260,1 52986U 22076A   23262.78664535  .00004514  00000-0  30143-3 0  9994,2 52986  53.2152 182.9222 0001605  89.2623 270.8553 15.08849077 67156,6917.853,95.437,540.828,538.607,0.0
52986.0,STARLINK-4260,PAYLOAD,2023-09-20 01:14:18,15.0885175,0.0001594,53.2153,181.7324,89.3545,270.763,0.00027846,4.148e-05,0.0,0 STARLINK-4260,1 52986U 22076A   23263.05160306  .00004148  00000-0  27846-3 0  9991,2 52986  53.2153 181.7324 0001594  89.3545 270.7630 15.08851750 66726,6917.844,95.437,540.812,538.607,0.0
52986.0,STARLINK-4260,PAYLOAD,2023-09-20 21:54:20,15.08826908,0.0001689,53.2154,177.8668,120.197,239.919,-0.00016003,-2.833e-05,0.0,0 STARLINK-4260,1 52986U 22076A   23263.91273457 -.00002833  00000-0 -16003-3 0  9992,2 52986  53.2154 177.8668 0001689 120.1970 239.9190 15.08826908 66854,6917.92,95.438,540.954,538.617,0.0
52986.0,STARLINK-4260,PAYLOAD,2023-09-20 23:29:43,15.0882644,0.0001616,53.2163,177.5703,121.5867,238.5283,-0.0001398,-2.511e-05,0.0,0 STARLINK-4260,1 52986U 22076A   23263.97897623 -.00002511  00000-0 -13980-3 0  9999,2 52986  53.2163 177.5703 0001616 121.5867 238.5283 15.08826440 67334,6917.922,95.438,540.905,538.669,0.0
52986.0,STARLINK-4260,PAYLOAD,2023-09-21 04:15:53,15.08826151,0.0001306,53.2152,176.676,111.605,248.5081,-0.00011041,-2.044e-05,0.0,0 STARLINK-4260,1 52986U 22076A   23264.17769831 -.00002044  00000-0 -11041-3 0  9998,2 52986  53.2152 176.6760 0001306 111.6050 248.5081 15.08826151 66891,6917.923,95.438,540.691,538.884,0.0
52986.0,STARLINK-4260,PAYLOAD,2023-09-21 21:45:07,15.08838927,0.0001095,53.2154,173.4067,113.8593,246.2514,0.000229,3.358e-05,0.0,0 STARLINK-4260,1 52986U 22076A   23264.90633870  .00003358  00000-0  22900-3 0  9995,2 52986  53.2154 173.4067 0001095 113.8593 246.2514 15.08838927 67003,6917.884,95.438,540.506,538.991,0.0
52986.0,STARLINK-4260,PAYLOAD,2023-09-22 00:55:53,15.0884755,8.89e-05,53.2154,172.8119,87.347,272.7624,0.00057364,8.855e-05,0.0,0 STARLINK-4260,1 52986U 22076A   23265.03881887  .00008855  00000-0  57364-3 0  9992,2 52986  53.2154 172.8119 0000889  87.3470 272.7624 15.08847550 67494,6917.857,95.437,540.337,539.107,0.0
52986.0,STARLINK-4260,PAYLOAD,2023-09-22 21:35:54,15.08848719,0.0001147,53.2168,168.9499,106.3665,253.7454,0.00017587,2.513e-05,0.0,0 STARLINK-4260,1 52986U 22076A   23265.89993647  .00002513  00000-0  17587-3 0  9992,2 52986  53.2168 168.9499 0001147 106.3665 253.7454 15.08848719 67153,6917.854,95.437,540.512,538.925,0.0
52986.0,STARLINK-4260,PAYLOAD,2023-09-23 00:46:40,15.08847304,0.0001114,53.2169,168.3547,102.4576,257.6541,0.00031795,4.777e-05,0.0,0 STARLINK-4260,1 52986U 22076A   23266.03241691  .00004777  00000-0  31795-3 0  9995,2 52986  53.2169 168.3547 0001114 102.4576 257.6541 15.08847304 67647,6917.858,95.437,540.494,538.952,0.0
52986.0,STARLINK-4260,PAYLOAD,2023-09-23 02:22:03,15.08848921,0.0001114,53.217,168.0566,95.7041,264.4078,0.00034384,5.19e-05,0.0,0 STARLINK-4260,1 52986U 22076A   23266.09865552  .00005190  00000-0  34384-3 0  9996,2 52986  53.2170 168.0566 0001114  95.7041 264.4078 15.08848921 67184,6917.853,95.437,540.489,538.947,0.0
52986.0,STARLINK-4260,PAYLOAD,2023-09-24 02:12:50,15.08847138,0.0001224,53.2168,163.5963,93.3103,266.8029,6.5007e-05,7.47e-06,0.0,0 STARLINK-4260,1 52986U 22076A   23267.09225617  .00000747  00000-0  65007-4 0  9999,2 52986  53.2168 163.5963 0001224  93.3103 266.8029 15.08847138 67807,6917.859,95.437,540.57,538.877,0.0
52986.0,STARLINK-4260,PAYLOAD,2023-09-25 00:28:14,15.08845799,9.82e-05,53.2162,159.4306,90.1505,269.96,5.8375e-05,6.42e-06,0.0,0 STARLINK-4260,1 52986U 22076A   23268.01961491  .00000642  00000-0  58375-4 0  9993,2 52986  53.2162 159.4306 0000982  90.1505 269.9600 15.08845799 67942,6917.863,95.437,540.407,539.048,0.0
52986.0,STARLINK-4260,PAYLOAD,2023-09-25 10:00:33,15.08850372,0.0001069,53.2166,157.6475,85.9131,274.1983,0.00015851,2.236e-05,0.0,0 STARLINK-4260,1 52986U 22076A   23268.41705309  .00002236  00000-0  15851-3 0  9993,2 52986  53.2166 157.6475 0001069  85.9131 274.1983 15.08850372 67537,6917.849,95.437,540.453,538.974,0.0
52986.0,STARLINK-4260,PAYLOAD,2023-09-25 21:08:15,15.08853772,0.0001028,53.216,155.5628,96.0354,264.0755,0.00027029,4.018e-05,0.0,0 STARLINK-4260,1 52986U 22076A   23268.88073135  .00004018  00000-0  27029-3 0  9999,2 52986  53.2160 155.5628 0001028  96.0354 264.0755 15.08853772 67603,6917.838,95.437,540.414,538.992,0.0
52986.0,STARLINK-4260,PAYLOAD,2023-09-26 01:54:24,15.08865776,0.0001095,53.2152,154.6697,98.7266,261.385,0.00060162,9.307e-05,0.0,0 STARLINK-4260,1 52986U 22076A   23269.07944554  .00009307  00000-0  60162-3 0  9994,2 52986  53.2152 154.6697 0001095  98.7266 261.3850 15.08865776 68104,6917.802,95.436,540.424,538.909,0.0
52986.0,STARLINK-4260,PAYLOAD,2023-09-26 20:59:02,15.08833929,0.0001229,53.2156,151.1038,90.4147,269.6986,-9.0096e-05,-1.721e-05,0.0,0 STARLINK-4260,1 52986U 22076A   23269.87433765 -.00001721  00000-0 -90096-4 0  9993,2 52986  53.2156 151.1038 0001229  90.4147 269.6986 15.08833929 68224,6917.899,95.438,540.614,538.914,0.0
52986.0,STARLINK-4260,PAYLOAD,2023-09-27 09:42:08,15.08830994,0.000155,53.2155,148.7253,88.5816,271.5354,9.5253e-05,1.228e-05,0.0,0 STARLINK-4260,1 52986U 22076A   23270.40426329  .00001228  00000-0  95253-4 0  9992,2 52986  53.2155 148.7253 0001550  88.5816 271.5354 15.08830994 67838,6917.908,95.438,540.845,538.701,0.0
52986.0,STARLINK-4260,PAYLOAD,2023-09-27 22:25:13,15.08832418,0.0001575,53.215,146.3445,110.5271,249.589,-1.2787e-05,-4.91e-06,0.0,0 STARLINK-4260,1 52986U 22076A   23270.93418663 -.00000491  00000-0 -12787-4 0  9996,2 52986  53.2150 146.3445 0001575 110.5271 249.5890 15.08832418 68382,6917.904,95.438,540.858,538.679,0.0
52986.0,STARLINK-4260,PAYLOAD,2023-09-28 22:16:00,15.08846513,0.000171,53.2153,141.8832,116.8489,243.2679,0.00040627,6.185e-05,0.0,0 STARLINK-4260,1 52986U 22076A   23271.92778657  .00006185  00000-0  40627-3 0  9995,2 52986  53.2153 141.8832 0001710 116.8489 243.2679 15.08846513 68068,6917.86,95.437,540.908,538.543,0.0
52986.0,STARLINK-4260,PAYLOAD,2023-09-29 18:56:01,15.08848593,0.0001738,53.216,138.0175,113.2007,246.9168,0.00026458,3.926e-05,0.0,0 STARLINK-4260,1 52986U 22076A   23272.78890379  .00003926  00000-0  26458-3 0  9992,2 52986  53.2160 138.0175 0001738 113.2007 246.9168 15.08848593 68660,6917.854,95.437,540.921,538.517,0.0
52986.0,STARLINK-4260,PAYLOAD,2023-09-29 20:31:24,15.08849418,0.0001503,53.2148,137.72,115.5245,244.5903,0.00026577,3.945e-05,0.0,0 STARLINK-4260,1 52986U 22076A   23272.85514349  .00003945  00000-0  26577-3 0  9993,2 52986  53.2148 137.7200 0001503 115.5245 244.5903 15.08849418 68208,6917.852,95.437,540.756,538.677,0.0
52986.0,STARLINK-4260,PAYLOAD,2023-09-30 14:00:39,15.08840137,0.0002051,53.2151,134.4497,79.9502,280.1721,-7.987e-05,-1.559e-05,0.0,0 STARLINK-4260,1 52986U 22076A   23273.58378604 -.00001559  00000-0 -79870-4 0  9992,2 52986  53.2151 134.4497 0002051  79.9502 280.1721 15.08840137 68788,6917.88,95.438,541.164,538.326,0.0
52986.0,STARLINK-4260,PAYLOAD,2023-10-01 07:29:53,15.08843547,0.0001456,53.2158,131.1807,82.4226,277.6931,8.6459e-05,1.088e-05,0.0,0 STARLINK-4260,1 52986U 22076A   23274.31242507  .00001088  00000-0  86459-4 0  9992,2 52986  53.2158 131.1807 0001456  82.4226 277.6931 15.08843547 68427,6917.87,95.437,540.742,538.727,0.0
52986.0,STARLINK-4260,PAYLOAD,2023-10-01 18:37:35,15.08854091,0.0001206,53.2146,129.0983,84.821,275.292,0.0002894,4.323e-05,0.0,0 STARLINK-4260,1 52986U 22076A   23274.77609992  .00004323  00000-0  28940-3 0  9992,2 52986  53.2146 129.0983 0001206  84.8210 275.2920 15.08854091 68964,6917.837,95.437,540.537,538.868,0.0
52986.0,STARLINK-4260,PAYLOAD,2023-10-01 20:12:58,15.08856356,0.0001214,53.2149,128.8011,82.3188,277.7941,0.0005021,7.716e-05,0.0,0 STARLINK-4260,1 52986U 22076A   23274.84234048  .00007716  00000-0  50210-3 0  9990,2 52986  53.2149 128.8011 0001214  82.3188 277.7941 15.08856356 68508,6917.83,95.437,540.535,538.856,0.0
52986.0,STARLINK-4260,PAYLOAD,2023-10-02 07:20:40,15.08851517,0.000126,53.2144,126.7178,83.5186,276.595,0.00030693,4.602e-05,0.0,0 STARLINK-4260,1 52986U 22076A   23275.30602087  .00004602  00000-0  30693-3 0  9998,2 52986  53.2144 126.7178 0001260  83.5186 276.5950 15.08851517 69047,6917.845,95.437,540.582,538.839,0.0
52986.0,STARLINK-4260,PAYLOAD,2023-10-02 20:03:45,15.08838405,0.0001311,53.2136,124.3393,87.7209,272.3933,0.00018639,2.68e-05,0.0,0 STARLINK-4260,1 52986U 22076A   23275.83594533  .00002680  00000-0  18639-3 0  9992,2 52986  53.2136 124.3393 0001311  87.7209 272.3933 15.08838405 69125,6917.885,95.438,540.657,538.843,0.0
52986.0,STARLINK-4260,PAYLOAD,2023-10-02 21:39:08,15.08840831,0.0001348,53.2136,124.0419,87.4883,272.6263,0.00036201,5.478e-05,0.0,0 STARLINK-4260,1 52986U 22076A   23275.90218545  .00005478  00000-0  36201-3 0  9999,2 52986  53.2136 124.0419 0001348  87.4883 272.6263 15.08840831 68669,6917.878,95.438,540.675,538.81,0.0
52986.0,STARLINK-4260,PAYLOAD,2023-10-03 19:54:33,15.08840689,0.0001395,53.2136,119.8785,88.1494,271.9658,0.000488,7.487e-05,0.0,0 STARLINK-4260,1 52986U 22076A   23276.82955135  .00007487  00000-0  48800-3 0  9994,2 52986  53.2136 119.8785 0001395  88.1494 271.9658 15.08840689 69274,6917.878,95.438,540.708,538.778,0.0
